ONEWEB-0092             
1 45437U 20020P   26029.00595744 -.00000434  00000+0 -12607-2 0  9990
2 45437  87.8821  48.7610 0002185  90.7604 269.3775 13.11416204284542
ONEWEB-0085             
1 45438U 20020Q   26028.58464967  .00000526  00000+0  14485-2 0  9991
2 45438  87.8812  48.8513 0001847  92.1848 267.9492 13.11415423284379
ONEWEB-0096             
1 45439U 20020R   26028.96782664  .00000460  00000+0  12615-2 0  9991
2 45439  87.8824  48.7595 0001839  89.9765 270.1574 13.11415144284417
ONEWEB-0037             
1 45440U 20020S   26028.56685387  .00000360  00000+0  98071-3 0  9993
2 45440  87.8834  48.8130 0001938  92.6339 267.5011 13.11418841284394
ONEWEB-0042             
1 45441U 20020T   26028.80492462  .00000543  00000+0  14960-2 0  9998
2 45441  87.8819  48.7906 0001911  89.7701 270.3646 13.11416747284398
ONEWEB-0098             
1 45442U 20020U   26028.95341952  .00000469  00000+0  12877-2 0  9994
2 45442  87.8824  48.7727 0001764  94.0651 266.0679 13.11418551284398
ONEWEB-0055             
1 45443U 20020V   26028.78385555 -.00000173  00000+0 -52409-3 0  9993
2 45443  87.8821  48.8065 0001762  93.7586 266.3744 13.11419681284349
ONEWEB-0093             
1 45444U 20020W   26028.98830239 -.00000242  00000+0 -71861-3 0  9990
2 45444  87.8815  48.7548 0001893  82.8674 277.2670 13.11415014284435
ONEWEB-0029             
1 45445U 20020X   26028.54648885 -.00000441  00000+0 -12809-2 0  9994
2 45445  87.8823  48.8552 0001773  88.5800 271.5531 13.11418103284358
ONEWEB-0068             
1 45446U 20020Y   26028.98802345 -.00000290  00000+0 -85553-3 0  9995
2 45446  87.8820  48.7564 0001743  86.3166 273.8162 13.11413774284350
ONEWEB-0046             
1 45447U 20020Z   26028.75080247  .00000003  00000+0 -26026-4 0  9992
2 45447  87.8819  48.8111 0001980  86.6215 273.5140 13.11413987284336
ONEWEB-0063             
1 45448U 20020AA  26028.55073126 -.00000247  00000+0 -73173-3 0  9994
2 45448  87.8824  48.8484 0002095  91.6036 268.5332 13.11417796284396
ONEWEB-0019             
1 45449U 20020AB  26028.58960319  .00000341  00000+0  92761-3 0  9994
2 45449  87.8809  48.8394 0001721  96.4032 263.7292 13.11416073284247
ONEWEB-0094             
1 45450U 20020AC  26028.93599372  .00000024  00000+0  28946-4 0  9995
2 45450  87.9097  33.5059 0001686  85.8359 274.2965 13.17650966287976
ONEWEB-0087             
1 45451U 20020AD  26028.56076837  .00000152  00000+0  39341-3 0  9993
2 45451  87.8834  48.8095 0001705  82.9743 277.1579 13.11417905284283
ONEWEB-0082             
1 45452U 20020AE  26028.78639679 -.00000047  00000+0 -16844-3 0  9995
2 45452  87.8833  48.7897 0001676  85.2499 274.8821 13.11417537284402
ONEWEB-0050             
1 45453U 20020AF  26028.66181054  .00003418  00000+0  35388-3 0  9999
2 45453  88.9206 252.2364 0005639 104.5568 255.6287 14.89830930319601
