[{"OBJECT_NAME":"ONEWEB-0092","OBJECT_ID":"2020-020P","EPOCH":"2026-01-29T00:08:34.722816","MEAN_MOTION":13.11416204,"ECCENTRICITY":0.00021851,"INCLINATION":87.8821,"RA_OF_ASC_NODE":48.761,"ARG_OF_PERICENTER":90.7604,"MEAN_ANOMALY":269.3775,"EPHEMERIS_TYPE":0,"CLASSIFICATION_TYPE":"U","NORAD_CAT_ID":45437,"ELEMENT_SET_NO":999,"REV_AT_EPOCH":28454,"BSTAR":-0.001260738,"MEAN_MOTION_DOT":-4.34e-6,"MEAN_MOTION_DDOT":0},{"OBJECT_NAME":"ONEWEB-0085","OBJECT_ID":"2020-020Q","EPOCH":"2026-01-28T14:01:53.731488","MEAN_MOTION":13.11415423,"ECCENTRICITY":0.00018476,"INCLINATION":87.8812,"RA_OF_ASC_NODE":48.8513,"ARG_OF_PERICENTER":92.1848,"MEAN_ANOMALY":267.9492,"EPHEMERIS_TYPE":0,"CLASSIFICATION_TYPE":"U","NORAD_CAT_ID":45438,"ELEMENT_SET_NO":999,"REV_AT_EPOCH":28437,"BSTAR":0.001448534,"MEAN_MOTION_DOT":5.26e-6,"MEAN_MOTION_DDOT":0},{"OBJECT_NAME":"ONEWEB-0096","OBJECT_ID":"2020-020R","EPOCH":"2026-01-28T23:13:40.221696","MEAN_MOTION":13.11415144,"ECCENTRICITY":0.00018399,"INCLINATION":87.8824,"RA_OF_ASC_NODE":48.7595,"ARG_OF_PERICENTER":89.9765,"MEAN_ANOMALY":270.1574,"EPHEMERIS_TYPE":0,"CLASSIFICATION_TYPE":"U","NORAD_CAT_ID":45439,"ELEMENT_SET_NO":999,"REV_AT_EPOCH":28441,"BSTAR":0.001261514,"MEAN_MOTION_DOT":4.6e-6,"MEAN_MOTION_DDOT":0},{"OBJECT_NAME":"ONEWEB-0037","OBJECT_ID":"2020-020S","EPOCH":"2026-01-28T13:36:16.174368","MEAN_MOTION":13.11418841,"ECCENTRICITY":0.0001938,"INCLINATION":87.8834,"RA_OF_ASC_NODE":48.813,"ARG_OF_PERICENTER":92.6339,"MEAN_ANOMALY":267.5011,"EPHEMERIS_TYPE":0,"CLASSIFICATION_TYPE":"U","NORAD_CAT_ID":45440,"ELEMENT_SET_NO":999,"REV_AT_EPOCH":28439,"BSTAR":0.00098071268,"MEAN_MOTION_DOT":3.6e-6,"MEAN_MOTION_DDOT":0},{"OBJECT_NAME":"ONEWEB-0042","OBJECT_ID":"2020-020T","EPOCH":"2026-01-28T19:19:05.487168","MEAN_MOTION":13.11416747,"ECCENTRICITY":0.00019114,"INCLINATION":87.8819,"RA_OF_ASC_NODE":48.7906,"ARG_OF_PERICENTER":89.7701,"MEAN_ANOMALY":270.3646,"EPHEMERIS_TYPE":0,"CLASSIFICATION_TYPE":"U","NORAD_CAT_ID":45441,"ELEMENT_SET_NO":999,"REV_AT_EPOCH":28439,"BSTAR":0.0014959643,"MEAN_MOTION_DOT":5.43e-6,"MEAN_MOTION_DDOT":0},{"OBJECT_NAME":"ONEWEB-0098","OBJECT_ID":"2020-020U","EPOCH":"2026-01-28T22:52:55.446528","MEAN_MOTION":13.11418551,"ECCENTRICITY":0.00017642,"INCLINATION":87.8824,"RA_OF_ASC_NODE":48.7727,"ARG_OF_PERICENTER":94.0651,"MEAN_ANOMALY":266.0679,"EPHEMERIS_TYPE":0,"CLASSIFICATION_TYPE":"U","NORAD_CAT_ID":45442,"ELEMENT_SET_NO":999,"REV_AT_EPOCH":28439,"BSTAR":0.0012877276,"MEAN_MOTION_DOT":4.69e-6,"MEAN_MOTION_DDOT":0},{"OBJECT_NAME":"ONEWEB-0055","OBJECT_ID":"2020-020V","EPOCH":"2026-01-28T18:48:45.119520","MEAN_MOTION":13.11419681,"ECCENTRICITY":0.00017624,"INCLINATION":87.8821,"RA_OF_ASC_NODE":48.8065,"ARG_OF_PERICENTER":93.7586,"MEAN_ANOMALY":266.3744,"EPHEMERIS_TYPE":0,"CLASSIFICATION_TYPE":"U","NORAD_CAT_ID":45443,"ELEMENT_SET_NO":999,"REV_AT_EPOCH":28434,"BSTAR":-0.00052409047,"MEAN_MOTION_DOT":-1.73e-6,"MEAN_MOTION_DDOT":0},{"OBJECT_NAME":"ONEWEB-0093","OBJECT_ID":"2020-020W","EPOCH":"2026-01-28T23:43:09.326496","MEAN_MOTION":13.11415014,"ECCENTRICITY":0.00018933,"INCLINATION":87.8815,"RA_OF_ASC_NODE":48.7548,"ARG_OF_PERICENTER":82.8674,"MEAN_ANOMALY":277.267,"EPHEMERIS_TYPE":0,"CLASSIFICATION_TYPE":"U","NORAD_CAT_ID":45444,"ELEMENT_SET_NO":999,"REV_AT_EPOCH":28443,"BSTAR":-0.00071861291,"MEAN_MOTION_DOT":-2.42e-6,"MEAN_MOTION_DDOT":0},{"OBJECT_NAME":"ONEWEB-0029","OBJECT_ID":"2020-020X","EPOCH":"2026-01-28T13:06:56.636640","MEAN_MOTION":13.11418103,"ECCENTRICITY":0.00017732,"INCLINATION":87.8823,"RA_OF_ASC_NODE":48.8552,"ARG_OF_PERICENTER":88.58,"MEAN_ANOMALY":271.5531,"EPHEMERIS_TYPE":0,"CLASSIFICATION_TYPE":"U","NORAD_CAT_ID":45445,"ELEMENT_SET_NO":999,"REV_AT_EPOCH":28435,"BSTAR":-0.0012809387,"MEAN_MOTION_DOT":-4.41e-6,"MEAN_MOTION_DDOT":0},{"OBJECT_NAME":"ONEWEB-0068","OBJECT_ID":"2020-020Y","EPOCH":"2026-01-28T23:42:45.226080","MEAN_MOTION":13.11413774,"ECCENTRICITY":0.00017434,"INCLINATION":87.882,"RA_OF_ASC_NODE":48.7564,"ARG_OF_PERICENTER":86.3166,"MEAN_ANOMALY":273.8162,"EPHEMERIS_TYPE":0,"CLASSIFICATION_TYPE":"U","NORAD_CAT_ID":45446,"ELEMENT_SET_NO":999,"REV_AT_EPOCH":28435,"BSTAR":-0.00085553376,"MEAN_MOTION_DOT":-2.9e-6,"MEAN_MOTION_DDOT":0},{"OBJECT_NAME":"ONEWEB-0046","OBJECT_ID":"2020-020Z","EPOCH":"2026-01-28T18:01:09.333408","MEAN_MOTION":13.11413987,"ECCENTRICITY":0.00019805,"INCLINATION":87.8819,"RA_OF_ASC_NODE":48.8111,"ARG_OF_PERICENTER":86.6215,"MEAN_ANOMALY":273.514,"EPHEMERIS_TYPE":0,"CLASSIFICATION_TYPE":"U","NORAD_CAT_ID":45447,"ELEMENT_SET_NO":999,"REV_AT_EPOCH":28433,"BSTAR":-2.6026337e-5,"MEAN_MOTION_DOT":3.0e-8,"MEAN_MOTION_DDOT":0},{"OBJECT_NAME":"ONEWEB-0063","OBJECT_ID":"2020-020AA","EPOCH":"2026-01-28T13:13:03.180864","MEAN_MOTION":13.11417796,"ECCENTRICITY":0.00020953,"INCLINATION":87.8824,"RA_OF_ASC_NODE":48.8484,"ARG_OF_PERICENTER":91.6036,"MEAN_ANOMALY":268.5332,"EPHEMERIS_TYPE":0,"CLASSIFICATION_TYPE":"U","NORAD_CAT_ID":45448,"ELEMENT_SET_NO":999,"REV_AT_EPOCH":28439,"BSTAR":-0.00073172591,"MEAN_MOTION_DOT":-2.47e-6,"MEAN_MOTION_DDOT":0},{"OBJECT_NAME":"ONEWEB-0019","OBJECT_ID":"2020-020AB","EPOCH":"2026-01-28T14:09:01.715616","MEAN_MOTION":13.11416073,"ECCENTRICITY":0.00017211,"INCLINATION":87.8809,"RA_OF_ASC_NODE":48.8394,"ARG_OF_PERICENTER":96.4032,"MEAN_ANOMALY":263.7292,"EPHEMERIS_TYPE":0,"CLASSIFICATION_TYPE":"U","NORAD_CAT_ID":45449,"ELEMENT_SET_NO":999,"REV_AT_EPOCH":28424,"BSTAR":0.00092761221,"MEAN_MOTION_DOT":3.41e-6,"MEAN_MOTION_DDOT":0},{"OBJECT_NAME":"ONEWEB-0094","OBJECT_ID":"2020-020AC","EPOCH":"2026-01-28T22:27:49.857408","MEAN_MOTION":13.17650966,"ECCENTRICITY":0.00016862,"INCLINATION":87.9097,"RA_OF_ASC_NODE":33.5059,"ARG_OF_PERICENTER":85.8359,"MEAN_ANOMALY":274.2965,"EPHEMERIS_TYPE":0,"CLASSIFICATION_TYPE":"U","NORAD_CAT_ID":45450,"ELEMENT_SET_NO":999,"REV_AT_EPOCH":28797,"BSTAR":2.8946141e-5,"MEAN_MOTION_DOT":2.4e-7,"MEAN_MOTION_DDOT":0},{"OBJECT_NAME":"ONEWEB-0087","OBJECT_ID":"2020-020AD","EPOCH":"2026-01-28T13:27:30.387168","MEAN_MOTION":13.11417905,"ECCENTRICITY":0.00017055,"INCLINATION":87.8834,"RA_OF_ASC_NODE":48.8095,"ARG_OF_PERICENTER":82.9743,"MEAN_ANOMALY":277.1579,"EPHEMERIS_TYPE":0,"CLASSIFICATION_TYPE":"U","NORAD_CAT_ID":45451,"ELEMENT_SET_NO":999,"REV_AT_EPOCH":28428,"BSTAR":0.00039340735,"MEAN_MOTION_DOT":1.52e-6,"MEAN_MOTION_DDOT":0},{"OBJECT_NAME":"ONEWEB-0082","OBJECT_ID":"2020-020AE","EPOCH":"2026-01-28T18:52:24.682656","MEAN_MOTION":13.11417537,"ECCENTRICITY":0.00016762,"INCLINATION":87.8833,"RA_OF_ASC_NODE":48.7897,"ARG_OF_PERICENTER":85.2499,"MEAN_ANOMALY":274.8821,"EPHEMERIS_TYPE":0,"CLASSIFICATION_TYPE":"U","NORAD_CAT_ID":45452,"ELEMENT_SET_NO":999,"REV_AT_EPOCH":28440,"BSTAR":-0.00016843624,"MEAN_MOTION_DOT":-4.7e-7,"MEAN_MOTION_DDOT":0},{"OBJECT_NAME":"ONEWEB-0050","OBJECT_ID":"2020-020AF","EPOCH":"2026-01-28T15:53:00.430656","MEAN_MOTION":14.8983093,"ECCENTRICITY":0.0005639,"INCLINATION":88.9206,"RA_OF_ASC_NODE":252.2364,"ARG_OF_PERICENTER":104.5568,"MEAN_ANOMALY":255.6287,"EPHEMERIS_TYPE":0,"CLASSIFICATION_TYPE":"U","NORAD_CAT_ID":45453,"ELEMENT_SET_NO":999,"REV_AT_EPOCH":31960,"BSTAR":0.00035388293,"MEAN_MOTION_DOT":3.418e-5,"MEAN_MOTION_DDOT":0}]
